OBJECT_NAME,OBJECT_ID,EPOCH,MEAN_MOTION,ECCENTRICITY,INCLINATION,RA_OF_ASC_NODE,ARG_OF_PERICENTER,MEAN_ANOMALY,EPHEMERIS_TYPE,CLASSIFICATION_TYPE,NORAD_CAT_ID,ELEMENT_SET_NO,REV_AT_EPOCH,BSTAR,MEAN_MOTION_DOT,MEAN_MOTION_DDOT
GEOSCAN 3 (RS92S3),2025-155T,2026-06-06T23:02:06.000288,15.35054153,.00051772,97.4536,127.7206,194.8402,165.2690,0,U,64893,999,7928,.58062096E-3,.19702E-3,0
INNOSAT 3 (RS92S0),2025-155U,2026-06-06T22:33:07.752384,15.43107567,.00046074,97.4487,129.1963,178.5380,181.5881,0,U,64894,999,7938,.93434964E-3,.41418E-3,0
KNACKSAT-2,1998-067XZ,2026-06-06T06:20:58.495488,15.58973490,.00105336,51.6302,349.3788,167.5745,192.5509,0,U,67683,999,1857,.81732863E-3,.64955E-3,0
