GEOSCAN 3 (RS92S3)      
1 64893U 25155T   26157.95979167  .00019702  00000+0  58062-3 0  9994
2 64893  97.4536 127.7206 0005177 194.8402 165.2690 15.35054153 79286
INNOSAT 3 (RS92S0)      
1 64894U 25155U   26157.93967306  .00041418  00000+0  93435-3 0  9997
2 64894  97.4487 129.1963 0004607 178.5380 181.5881 15.43107567 79380
KNACKSAT-2              
1 67683U 98067XZ  26157.26456592  .00064955  00000+0  81733-3 0  9993
2 67683  51.6302 349.3788 0010533 167.5745 192.5509 15.58973490 18571
